start=new Date('2021-08-30T00:00:00.000Z').valueOf();
sats=[{"CLASSIFICATION_TYPE":"U","CENTER_NAME":"EARTH","OBJECT_TYPE":"PAYLOAD","ECCENTRICITY":"0.00015720","LAUNCH_DATE":"2020-03-18","SEMIMAJOR_AXIS":"6925.322","MEAN_ELEMENT_THEORY":"SGP4","REV_AT_EPOCH":"8059","PERIAPSIS":"546.099","TIME_SYSTEM":"UTC","NORAD_CAT_ID":"45370","REF_FRAME":"TEME","OBJECT_NAME":"STARLINK-1281","GP_ID":"183697854","TLE_LINE2":"2 45370  53.0548  27.1448 0001572 116.0219 244.0932 15.06408592 80593","EPOCH":"2021-08-29T16:57:44.706816","TLE_LINE1":"1 45370U 20019L   21241.70676744  .00001292  00000-0  10557-3 0  9997","MEAN_ANOMALY":"244.0932","MEAN_MOTION_DOT":"0.00001292","EPHEMERIS_TYPE":"0","PERIOD":"95.592","MEAN_MOTION":"15.06408592","COUNTRY_CODE":"US","SITE":"AFETR","RA_OF_ASC_NODE":"27.1448","OBJECT_ID":"2020-019L","ELEMENT_SET_NO":"999","INCLINATION":"53.0548","APOAPSIS":"548.276","RCS_SIZE":"LARGE","ARG_OF_PERICENTER":"116.0219","FILE":"3105271","DECAY_DATE":null,"BSTAR":"0.00010557000000","MEAN_MOTION_DDOT":"0.0000000000000"},{"ARG_OF_PERICENTER":"125.5536","INCLINATION":"53.0562","RCS_SIZE":"LARGE","APOAPSIS":"548.324","MEAN_MOTION_DDOT":"0.0000000000000","FILE":"3105271","BSTAR":"0.00004681600000","DECAY_DATE":null,"SITE":"AFETR","PERIOD":"95.592","COUNTRY_CODE":"US","MEAN_MOTION":"15.06398036","RA_OF_ASC_NODE":"27.0272","OBJECT_ID":"2020-019M","ELEMENT_SET_NO":"999","EPOCH":"2021-08-29T17:40:12.192672","TLE_LINE2":"2 45371  53.0562  27.0272 0001595 125.5536 234.5601 15.06398036 80594","GP_ID":"183699106","OBJECT_NAME":"STARLINK-1287","MEAN_ANOMALY":"234.5601","MEAN_MOTION_DOT":"0.00000416","EPHEMERIS_TYPE":"0","TLE_LINE1":"1 45371U 20019M   21241.73625223  .00000416  00000-0  46816-4 0  9992","ECCENTRICITY":"0.00015950","CENTER_NAME":"EARTH","CLASSIFICATION_TYPE":"U","OBJECT_TYPE":"PAYLOAD","TIME_SYSTEM":"UTC","NORAD_CAT_ID":"45371","PERIAPSIS":"546.115","REF_FRAME":"TEME","SEMIMAJOR_AXIS":"6925.355","LAUNCH_DATE":"2020-03-18","MEAN_ELEMENT_THEORY":"SGP4","REV_AT_EPOCH":"8059"},{"TLE_LINE1":"1 45372U 20019N   21241.88370047 -.00001255  00000-0 -65405-4 0  9999","EPHEMERIS_TYPE":"0","MEAN_MOTION_DOT":"-0.00001255","MEAN_ANOMALY":"251.8412","OBJECT_NAME":"STARLINK-1288","TLE_LINE2":"2 45372  53.0560  26.3608 0001672 108.2759 251.8412 15.06393415 80610","GP_ID":"183698856","EPOCH":"2021-08-29T21:12:31.720608","REV_AT_EPOCH":"8061","MEAN_ELEMENT_THEORY":"SGP4","LAUNCH_DATE":"2020-03-18","SEMIMAJOR_AXIS":"6925.369","REF_FRAME":"TEME","PERIAPSIS":"546.076","NORAD_CAT_ID":"45372","TIME_SYSTEM":"UTC","OBJECT_TYPE":"PAYLOAD","CLASSIFICATION_TYPE":"U","CENTER_NAME":"EARTH","ECCENTRICITY":"0.00016720","DECAY_DATE":null,"BSTAR":"-0.00006540500000","FILE":"3105271","MEAN_MOTION_DDOT":"0.0000000000000","RCS_SIZE":"LARGE","APOAPSIS":"548.392","INCLINATION":"53.0560","ARG_OF_PERICENTER":"108.2759","ELEMENT_SET_NO":"999","OBJECT_ID":"2020-019N","RA_OF_ASC_NODE":"26.3608","MEAN_MOTION":"15.06393415","COUNTRY_CODE":"US","PERIOD":"95.593","SITE":"AFETR"},{"FILE":"3105271","DECAY_DATE":null,"BSTAR":"0.00008565100000","MEAN_MOTION_DDOT":"0.0000000000000","INCLINATION":"53.0549","RCS_SIZE":"LARGE","APOAPSIS":"548.194","ARG_OF_PERICENTER":"115.6260","OBJECT_ID":"2020-019P","RA_OF_ASC_NODE":"27.0437","ELEMENT_SET_NO":"999","PERIOD":"95.592","MEAN_MOTION":"15.06404955","COUNTRY_CODE":"US","SITE":"AFETR","TLE_LINE1":"1 45373U 20019P   21241.73256278  .00000995  00000-0  85651-4 0  9996","MEAN_ANOMALY":"244.4877","MEAN_MOTION_DOT":"0.00000995","EPHEMERIS_TYPE":"0","OBJECT_NAME":"STARLINK-1295","EPOCH":"2021-08-29T17:34:53.424192","TLE_LINE2":"2 45373  53.0549  27.0437 0001438 115.6260 244.4877 15.06404955 80597","GP_ID":"183697604","LAUNCH_DATE":"2020-03-18","SEMIMAJOR_AXIS":"6925.333","REV_AT_EPOCH":"8059","MEAN_ELEMENT_THEORY":"SGP4","PERIAPSIS":"546.203","NORAD_CAT_ID":"45373","TIME_SYSTEM":"UTC","REF_FRAME":"TEME","CLASSIFICATION_TYPE":"U","CENTER_NAME":"EARTH","OBJECT_TYPE":"PAYLOAD","ECCENTRICITY":"0.00014380"},{"SITE":"AFETR","MEAN_MOTION":"15.06403570","COUNTRY_CODE":"US","PERIOD":"95.592","ELEMENT_SET_NO":"999","OBJECT_ID":"2020-019Q","RA_OF_ASC_NODE":"26.4645","ARG_OF_PERICENTER":"117.4645","RCS_SIZE":"LARGE","APOAPSIS":"548.232","INCLINATION":"53.0551","MEAN_MOTION_DDOT":"0.0000000000000","BSTAR":"0.00006440100000","DECAY_DATE":null,"FILE":"3105271","ECCENTRICITY":"0.00014860","OBJECT_TYPE":"PAYLOAD","CENTER_NAME":"EARTH","CLASSIFICATION_TYPE":"U","REF_FRAME":"TEME","NORAD_CAT_ID":"45374","TIME_SYSTEM":"UTC","PERIAPSIS":"546.174","REV_AT_EPOCH":"8061","MEAN_ELEMENT_THEORY":"SGP4","SEMIMAJOR_AXIS":"6925.338","LAUNCH_DATE":"2020-03-18","EPOCH":"2021-08-29T20:40:39.786240","TLE_LINE2":"2 45374  53.0551  26.4645 0001486 117.4645 242.6495 15.06403570 80616","GP_ID":"183698355","OBJECT_NAME":"STARLINK-1300","EPHEMERIS_TYPE":"0","MEAN_MOTION_DOT":"0.00000678","MEAN_ANOMALY":"242.6495","TLE_LINE1":"1 45374U 20019Q   21241.86157160  .00000678  00000-0  64401-4 0  9999"},{"EPOCH":"2021-08-29T17:50:48.681600","TLE_LINE2":"2 45375  53.0561  26.9889 0001364 113.2174 246.8959 15.06407700 80596","GP_ID":"183698606","OBJECT_NAME":"STARLINK-1302","EPHEMERIS_TYPE":"0","MEAN_ANOMALY":"246.8959","MEAN_MOTION_DOT":"0.00000566","TLE_LINE1":"1 45375U 20019R   21241.74361900  .00000566  00000-0  56888-4 0  9992","ECCENTRICITY":"0.00013640","OBJECT_TYPE":"PAYLOAD","CLASSIFICATION_TYPE":"U","CENTER_NAME":"EARTH","REF_FRAME":"TEME","PERIAPSIS":"546.245","NORAD_CAT_ID":"45375","TIME_SYSTEM":"UTC","MEAN_ELEMENT_THEORY":"SGP4","REV_AT_EPOCH":"8059","LAUNCH_DATE":"2020-03-18","SEMIMAJOR_AXIS":"6925.325","ARG_OF_PERICENTER":"113.2174","APOAPSIS":"548.135","RCS_SIZE":"LARGE","INCLINATION":"53.0561","MEAN_MOTION_DDOT":"0.0000000000000","DECAY_DATE":null,"BSTAR":"0.00005688800000","FILE":"3105271","SITE":"AFETR","COUNTRY_CODE":"US","MEAN_MOTION":"15.06407700","PERIOD":"95.592","ELEMENT_SET_NO":"999","OBJECT_ID":"2020-019R","RA_OF_ASC_NODE":"26.9889"},{"MEAN_ELEMENT_THEORY":"SGP4","REV_AT_EPOCH":"8058","SEMIMAJOR_AXIS":"6925.365","LAUNCH_DATE":"2020-03-18","REF_FRAME":"TEME","NORAD_CAT_ID":"45376","TIME_SYSTEM":"UTC","PERIAPSIS":"546.444","OBJECT_TYPE":"PAYLOAD","CENTER_NAME":"EARTH","CLASSIFICATION_TYPE":"U","ECCENTRICITY":"0.00011360","TLE_LINE1":"1 45376U 20019S   21241.69570708  .00000889  00000-0  78538-4 0  9999","EPHEMERIS_TYPE":"0","MEAN_MOTION_DOT":"0.00000889","MEAN_ANOMALY":"259.5475","OBJECT_NAME":"STARLINK-1304","EPOCH":"2021-08-29T16:41:49.091712","TLE_LINE2":"2 45376  53.0566  27.2016 0001136 100.5642 259.5475 15.06394531 80584","GP_ID":"183699357","ELEMENT_SET_NO":"999","RA_OF_ASC_NODE":"27.2016","OBJECT_ID":"2020-019S","MEAN_MOTION":"15.06394531","COUNTRY_CODE":"US","PERIOD":"95.592","SITE":"AFETR","BSTAR":"0.00007853800000","DECAY_DATE":null,"FILE":"3105271","MEAN_MOTION_DDOT":"0.0000000000000","APOAPSIS":"548.017","RCS_SIZE":"LARGE","INCLINATION":"53.0566","ARG_OF_PERICENTER":"100.5642"},{"FILE":"3105271","BSTAR":"-0.00000954970000","DECAY_DATE":null,"MEAN_MOTION_DDOT":"0.0000000000000","INCLINATION":"53.0548","APOAPSIS":"548.304","RCS_SIZE":"LARGE","ARG_OF_PERICENTER":"106.6648","OBJECT_ID":"2020-019T","RA_OF_ASC_NODE":"27.0935","ELEMENT_SET_NO":"999","PERIOD":"95.592","MEAN_MOTION":"15.06406122","COUNTRY_CODE":"US","SITE":"AFETR","TLE_LINE1":"1 45377U 20019T   21241.72150688 -.00000424  00000-0 -95497-5 0  9996","MEAN_ANOMALY":"253.4517","MEAN_MOTION_DOT":"-0.00000424","EPHEMERIS_TYPE":"0","OBJECT_NAME":"STARLINK-1305","GP_ID":"183698105","TLE_LINE2":"2 45377  53.0548  27.0935 0001601 106.6648 253.4517 15.06406122 80594","EPOCH":"2021-08-29T17:18:58.194432","SEMIMAJOR_AXIS":"6925.330","LAUNCH_DATE":"2020-03-18","REV_AT_EPOCH":"8059","MEAN_ELEMENT_THEORY":"SGP4","NORAD_CAT_ID":"45377","TIME_SYSTEM":"UTC","PERIAPSIS":"546.086","REF_FRAME":"TEME","CENTER_NAME":"EARTH","CLASSIFICATION_TYPE":"U","OBJECT_TYPE":"PAYLOAD","ECCENTRICITY":"0.00016010"},{"BSTAR":"0.00003466000000","DECAY_DATE":null,"FILE":"3105271","MEAN_MOTION_DDOT":"0.0000000000000","RCS_SIZE":"LARGE","APOAPSIS":"548.279","INCLINATION":"53.0561","ARG_OF_PERICENTER":"114.4176","ELEMENT_SET_NO":"999","OBJECT_ID":"2020-019U","RA_OF_ASC_NODE":"26.5423","COUNTRY_CODE":"US","MEAN_MOTION":"15.06389734","PERIOD":"95.593","SITE":"AFETR","TLE_LINE1":"1 45378U 20019U   21241.84315010  .00000235  00000-0  34660-4 0  9994","EPHEMERIS_TYPE":"0","MEAN_MOTION_DOT":"0.00000235","MEAN_ANOMALY":"245.6969","OBJECT_NAME":"STARLINK-1310","GP_ID":"183697855","TLE_LINE2":"2 45378  53.0561  26.5423 0001493 114.4176 245.6969 15.06389734 80614","EPOCH":"2021-08-29T20:14:08.168640","REV_AT_EPOCH":"8061","MEAN_ELEMENT_THEORY":"SGP4","SEMIMAJOR_AXIS":"6925.380","LAUNCH_DATE":"2020-03-18","REF_FRAME":"TEME","NORAD_CAT_ID":"45378","TIME_SYSTEM":"UTC","PERIAPSIS":"546.211","OBJECT_TYPE":"PAYLOAD","CENTER_NAME":"EARTH","CLASSIFICATION_TYPE":"U","ECCENTRICITY":"0.00014930"},{"TLE_LINE2":"2 45379  53.0558  27.1294 0001768 109.1318 250.9863 15.06396472 80594","GP_ID":"183699107","EPOCH":"2021-08-29T17:08:21.393600","OBJECT_NAME":"STARLINK-1319","EPHEMERIS_TYPE":"0","MEAN_ANOMALY":"250.9863","MEAN_MOTION_DOT":"0.00000720","TLE_LINE1":"1 45379U 20019V   21241.71413650  .00000720  00000-0  67233-4 0  9991","ECCENTRICITY":"0.00017680","OBJECT_TYPE":"PAYLOAD","CLASSIFICATION_TYPE":"U","CENTER_NAME":"EARTH","REF_FRAME":"TEME","PERIAPSIS":"546.000","NORAD_CAT_ID":"45379","TIME_SYSTEM":"UTC","REV_AT_EPOCH":"8059","MEAN_ELEMENT_THEORY":"SGP4","LAUNCH_DATE":"2020-03-18","SEMIMAJOR_AXIS":"6925.359","ARG_OF_PERICENTER":"109.1318","RCS_SIZE":"LARGE","APOAPSIS":"548.449","INCLINATION":"53.0558","MEAN_MOTION_DDOT":"0.0000000000000","DECAY_DATE":null,"BSTAR":"0.00006723300000","FILE":"3105271","SITE":"AFETR","COUNTRY_CODE":"US","MEAN_MOTION":"15.06396472","PERIOD":"95.592","ELEMENT_SET_NO":"999","RA_OF_ASC_NODE":"27.1294","OBJECT_ID":"2020-019V"}];
